STARLINK-35376          
1 66018U 25232P   25300.50002315 -.01603062  00000+0 -92522-2 0  9992
2 66018  53.1552   7.2334 0001413  62.7561 103.8019 15.80962847  2126
STARLINK-35382          
1 66019U 25232Q   25300.50002315 -.01566423  00000+0 -89626-2 0  9993
2 66019  53.1552   7.2486 0001339  63.0742  96.2159 15.81077260  2124
STARLINK-35430          
1 66020U 25232R   25300.50002315 -.01619408  00000+0 -93733-2 0  9991
2 66020  53.1545   7.2199 0001027  62.5922 110.3161 15.80938814  2117
STARLINK-35432          
1 66021U 25232S   25300.50002315 -.01608357  00000+0 -92847-2 0  9998
2 66021  53.1545   7.2246 0001053  59.4749 111.0544 15.80973342  2042
STARLINK-35340          
1 66022U 25232T   25300.50002315 -.01624450  00000+0 -94028-2 0  9994
2 66022  53.1551   7.2159 0001327  58.6259 116.2871 15.80944491  2115
STARLINK-35394          
1 66023U 25232U   25300.50002315 -.01628947  00000+0 -94381-2 0  9992
2 66023  53.1549   7.2112 0001327  66.2495 110.8213 15.80932565  2118
STARLINK-35410          
1 66024U 25232V   25300.50002315 -.01649088  00000+0 -95880-2 0  9997
2 66024  53.1547   7.2021 0001326  69.0761 112.4332 15.80898774  2115
STARLINK-35280          
1 66025U 25232W   25300.50002315 -.01637914  00000+0 -94934-2 0  9992
2 66025  53.1549   7.2068 0001392  74.0457 104.9964 15.80942201  2055
STARLINK-34812          
1 66026U 25232X   25300.50002315 -.01656041  00000+0 -96359-2 0  9998
2 66026  53.1551   7.1978 0001328  63.1607 120.4109 15.80896167  2067
STARLINK-35341          
1 66027U 25232Y   25300.50002315 -.01674596  00000+0 -97824-2 0  9992
2 66027  53.1548   7.1925 0001372  67.3454 118.7527 15.80848645  2119
STARLINK-35339          
1 66028U 25232Z   25300.50002315 -.01727378  00000+0 -99109-2 0  9998
2 66028  53.1549   7.1877 0001213  66.7746 121.5986 15.80828977  2058
STARLINK-35399          
1 66029U 25232AA  25300.50002315 -.01754707  00000+0 -10099-1 0  9995
2 66029  53.1547   7.1831 0000951  68.1752 122.4941 15.80809394  2051
