CCSDS_OMM_VERS = 2.0
CREATION_DATE  = 
ORIGINATOR     = 

OBJECT_NAME    = STARLINK-35376
OBJECT_ID      = 2025-232P
CENTER_NAME    = EARTH
REF_FRAME      = TEME
TIME_SYSTEM    = UTC
MEAN_ELEMENT_THEORY = SGP/SGP4

EPOCH          = 2025-10-27T12:00:02.000160
MEAN_MOTION    = 15.80962847
ECCENTRICITY   = .0001413
INCLINATION    = 53.1552
RA_OF_ASC_NODE = 7.2334
ARG_OF_PERICENTER = 62.7561
MEAN_ANOMALY   = 103.8019

EPHEMERIS_TYPE = 0
CLASSIFICATION_TYPE = U
NORAD_CAT_ID   = 66018
ELEMENT_SET_NO = 999
REV_AT_EPOCH   = 212
BSTAR          = -.92522E-2
MEAN_MOTION_DOT = -.1603062E-1
MEAN_MOTION_DDOT = 0

CCSDS_OMM_VERS = 2.0
CREATION_DATE  = 
ORIGINATOR     = 

OBJECT_NAME    = STARLINK-35382
OBJECT_ID      = 2025-232Q
CENTER_NAME    = EARTH
REF_FRAME      = TEME
TIME_SYSTEM    = UTC
MEAN_ELEMENT_THEORY = SGP/SGP4

EPOCH          = 2025-10-27T12:00:02.000160
MEAN_MOTION    = 15.81077260
ECCENTRICITY   = .0001339
INCLINATION    = 53.1552
RA_OF_ASC_NODE = 7.2486
ARG_OF_PERICENTER = 63.0742
MEAN_ANOMALY   = 96.2159

EPHEMERIS_TYPE = 0
CLASSIFICATION_TYPE = U
NORAD_CAT_ID   = 66019
ELEMENT_SET_NO = 999
REV_AT_EPOCH   = 212
BSTAR          = -.89626E-2
MEAN_MOTION_DOT = -.1566423E-1
MEAN_MOTION_DDOT = 0

CCSDS_OMM_VERS = 2.0
CREATION_DATE  = 
ORIGINATOR     = 

OBJECT_NAME    = STARLINK-35430
OBJECT_ID      = 2025-232R
CENTER_NAME    = EARTH
REF_FRAME      = TEME
TIME_SYSTEM    = UTC
MEAN_ELEMENT_THEORY = SGP/SGP4

EPOCH          = 2025-10-27T12:00:02.000160
MEAN_MOTION    = 15.80938814
ECCENTRICITY   = .0001027
INCLINATION    = 53.1545
RA_OF_ASC_NODE = 7.2199
ARG_OF_PERICENTER = 62.5922
MEAN_ANOMALY   = 110.3161

EPHEMERIS_TYPE = 0
CLASSIFICATION_TYPE = U
NORAD_CAT_ID   = 66020
ELEMENT_SET_NO = 999
REV_AT_EPOCH   = 211
BSTAR          = -.93733E-2
MEAN_MOTION_DOT = -.1619408E-1
MEAN_MOTION_DDOT = 0

CCSDS_OMM_VERS = 2.0
CREATION_DATE  = 
ORIGINATOR     = 

OBJECT_NAME    = STARLINK-35432
OBJECT_ID      = 2025-232S
CENTER_NAME    = EARTH
REF_FRAME      = TEME
TIME_SYSTEM    = UTC
MEAN_ELEMENT_THEORY = SGP/SGP4

EPOCH          = 2025-10-27T12:00:02.000160
MEAN_MOTION    = 15.80973342
ECCENTRICITY   = .0001053
INCLINATION    = 53.1545
RA_OF_ASC_NODE = 7.2246
ARG_OF_PERICENTER = 59.4749
MEAN_ANOMALY   = 111.0544

EPHEMERIS_TYPE = 0
CLASSIFICATION_TYPE = U
NORAD_CAT_ID   = 66021
ELEMENT_SET_NO = 999
REV_AT_EPOCH   = 204
BSTAR          = -.92847E-2
MEAN_MOTION_DOT = -.1608357E-1
MEAN_MOTION_DDOT = 0

CCSDS_OMM_VERS = 2.0
CREATION_DATE  = 
ORIGINATOR     = 

OBJECT_NAME    = STARLINK-35340
OBJECT_ID      = 2025-232T
CENTER_NAME    = EARTH
REF_FRAME      = TEME
TIME_SYSTEM    = UTC
MEAN_ELEMENT_THEORY = SGP/SGP4

EPOCH          = 2025-10-27T12:00:02.000160
MEAN_MOTION    = 15.80944491
ECCENTRICITY   = .0001327
INCLINATION    = 53.1551
RA_OF_ASC_NODE = 7.2159
ARG_OF_PERICENTER = 58.6259
MEAN_ANOMALY   = 116.2871

EPHEMERIS_TYPE = 0
CLASSIFICATION_TYPE = U
NORAD_CAT_ID   = 66022
ELEMENT_SET_NO = 999
REV_AT_EPOCH   = 211
BSTAR          = -.94028E-2
MEAN_MOTION_DOT = -.162445E-1
MEAN_MOTION_DDOT = 0

CCSDS_OMM_VERS = 2.0
CREATION_DATE  = 
ORIGINATOR     = 

OBJECT_NAME    = STARLINK-35394
OBJECT_ID      = 2025-232U
CENTER_NAME    = EARTH
REF_FRAME      = TEME
TIME_SYSTEM    = UTC
MEAN_ELEMENT_THEORY = SGP/SGP4

EPOCH          = 2025-10-27T12:00:02.000160
MEAN_MOTION    = 15.80932565
ECCENTRICITY   = .0001327
INCLINATION    = 53.1549
RA_OF_ASC_NODE = 7.2112
ARG_OF_PERICENTER = 66.2495
MEAN_ANOMALY   = 110.8213

EPHEMERIS_TYPE = 0
CLASSIFICATION_TYPE = U
NORAD_CAT_ID   = 66023
ELEMENT_SET_NO = 999
REV_AT_EPOCH   = 211
BSTAR          = -.94381E-2
MEAN_MOTION_DOT = -.1628947E-1
MEAN_MOTION_DDOT = 0

CCSDS_OMM_VERS = 2.0
CREATION_DATE  = 
ORIGINATOR     = 

OBJECT_NAME    = STARLINK-35410
OBJECT_ID      = 2025-232V
CENTER_NAME    = EARTH
REF_FRAME      = TEME
TIME_SYSTEM    = UTC
MEAN_ELEMENT_THEORY = SGP/SGP4

EPOCH          = 2025-10-27T12:00:02.000160
MEAN_MOTION    = 15.80898774
ECCENTRICITY   = .0001326
INCLINATION    = 53.1547
RA_OF_ASC_NODE = 7.2021
ARG_OF_PERICENTER = 69.0761
MEAN_ANOMALY   = 112.4332

EPHEMERIS_TYPE = 0
CLASSIFICATION_TYPE = U
NORAD_CAT_ID   = 66024
ELEMENT_SET_NO = 999
REV_AT_EPOCH   = 211
BSTAR          = -.9588E-2
MEAN_MOTION_DOT = -.1649088E-1
MEAN_MOTION_DDOT = 0

CCSDS_OMM_VERS = 2.0
CREATION_DATE  = 
ORIGINATOR     = 

OBJECT_NAME    = STARLINK-35280
OBJECT_ID      = 2025-232W
CENTER_NAME    = EARTH
REF_FRAME      = TEME
TIME_SYSTEM    = UTC
MEAN_ELEMENT_THEORY = SGP/SGP4

EPOCH          = 2025-10-27T12:00:02.000160
MEAN_MOTION    = 15.80942201
ECCENTRICITY   = .0001392
INCLINATION    = 53.1549
RA_OF_ASC_NODE = 7.2068
ARG_OF_PERICENTER = 74.0457
MEAN_ANOMALY   = 104.9964

EPHEMERIS_TYPE = 0
CLASSIFICATION_TYPE = U
NORAD_CAT_ID   = 66025
ELEMENT_SET_NO = 999
REV_AT_EPOCH   = 205
BSTAR          = -.94934E-2
MEAN_MOTION_DOT = -.1637914E-1
MEAN_MOTION_DDOT = 0

CCSDS_OMM_VERS = 2.0
CREATION_DATE  = 
ORIGINATOR     = 

OBJECT_NAME    = STARLINK-34812
OBJECT_ID      = 2025-232X
CENTER_NAME    = EARTH
REF_FRAME      = TEME
TIME_SYSTEM    = UTC
MEAN_ELEMENT_THEORY = SGP/SGP4

EPOCH          = 2025-10-27T12:00:02.000160
MEAN_MOTION    = 15.80896167
ECCENTRICITY   = .0001328
INCLINATION    = 53.1551
RA_OF_ASC_NODE = 7.1978
ARG_OF_PERICENTER = 63.1607
MEAN_ANOMALY   = 120.4109

EPHEMERIS_TYPE = 0
CLASSIFICATION_TYPE = U
NORAD_CAT_ID   = 66026
ELEMENT_SET_NO = 999
REV_AT_EPOCH   = 206
BSTAR          = -.96359E-2
MEAN_MOTION_DOT = -.1656041E-1
MEAN_MOTION_DDOT = 0

CCSDS_OMM_VERS = 2.0
CREATION_DATE  = 
ORIGINATOR     = 

OBJECT_NAME    = STARLINK-35341
OBJECT_ID      = 2025-232Y
CENTER_NAME    = EARTH
REF_FRAME      = TEME
TIME_SYSTEM    = UTC
MEAN_ELEMENT_THEORY = SGP/SGP4

EPOCH          = 2025-10-27T12:00:02.000160
MEAN_MOTION    = 15.80848645
ECCENTRICITY   = .0001372
INCLINATION    = 53.1548
RA_OF_ASC_NODE = 7.1925
ARG_OF_PERICENTER = 67.3454
MEAN_ANOMALY   = 118.7527

EPHEMERIS_TYPE = 0
CLASSIFICATION_TYPE = U
NORAD_CAT_ID   = 66027
ELEMENT_SET_NO = 999
REV_AT_EPOCH   = 211
BSTAR          = -.97824E-2
MEAN_MOTION_DOT = -.1674596E-1
MEAN_MOTION_DDOT = 0

CCSDS_OMM_VERS = 2.0
CREATION_DATE  = 
ORIGINATOR     = 

OBJECT_NAME    = STARLINK-35339
OBJECT_ID      = 2025-232Z
CENTER_NAME    = EARTH
REF_FRAME      = TEME
TIME_SYSTEM    = UTC
MEAN_ELEMENT_THEORY = SGP/SGP4

EPOCH          = 2025-10-27T12:00:02.000160
MEAN_MOTION    = 15.80828977
ECCENTRICITY   = .0001213
INCLINATION    = 53.1549
RA_OF_ASC_NODE = 7.1877
ARG_OF_PERICENTER = 66.7746
MEAN_ANOMALY   = 121.5986

EPHEMERIS_TYPE = 0
CLASSIFICATION_TYPE = U
NORAD_CAT_ID   = 66028
ELEMENT_SET_NO = 999
REV_AT_EPOCH   = 205
BSTAR          = -.99109E-2
MEAN_MOTION_DOT = -.1727378E-1
MEAN_MOTION_DDOT = 0

CCSDS_OMM_VERS = 2.0
CREATION_DATE  = 
ORIGINATOR     = 

OBJECT_NAME    = STARLINK-35399
OBJECT_ID      = 2025-232AA
CENTER_NAME    = EARTH
REF_FRAME      = TEME
TIME_SYSTEM    = UTC
MEAN_ELEMENT_THEORY = SGP/SGP4

EPOCH          = 2025-10-27T12:00:02.000160
MEAN_MOTION    = 15.80809394
ECCENTRICITY   = .0000951
INCLINATION    = 53.1547
RA_OF_ASC_NODE = 7.1831
ARG_OF_PERICENTER = 68.1752
MEAN_ANOMALY   = 122.4941

EPHEMERIS_TYPE = 0
CLASSIFICATION_TYPE = U
NORAD_CAT_ID   = 66029
ELEMENT_SET_NO = 999
REV_AT_EPOCH   = 205
BSTAR          = -.10099E-1
MEAN_MOTION_DOT = -.1754707E-1
MEAN_MOTION_DDOT = 0

